{
  "norad_id": 58718,
  "name": "STARLINK-31097",
  "history": [
    {
      "epoch": "2026-03-28T13:18:28.426752Z",
      "apogee_km": 476.0920132562187,
      "perigee_km": 474.3855226899932,
      "latitude_deg": 3.80140471007641e-05,
      "longitude_deg": 116.71291184874954,
      "height_km": 476.275494204884,
      "semi_major_axis_km": 6853.375767973105,
      "eccentricity": 0.0001245,
      "inclination_deg": 53.1602,
      "raan_deg": 142.3046,
      "arg_perigee_deg": 99.3474,
      "mean_anomaly_deg": 260.7668,
      "mean_motion_rev_day": 15.30192063
    }
  ]
}